{
  "type": "FeatureCollection",
  "name": "DXB",
  "features": [
    {
      "type": "Feature",
      "id": "cool-room",
      "properties": {
        "name": "Cool Room",
        "purpose": "Cargo Mega Terminal cool zone",
        "referenceAmbientC": 5,
        "referenceAmbientDeltaC": null
      },
      "geometry": {
        "type": "Polygon",
        "coordinates": [
          [
            [55.358, 25.2458],
            [55.359, 25.2458],
            [55.359, 25.2464],
            [55.358, 25.2464],
            [55.358, 25.2458]
          ]
        ]
      }
    },
    {
      "type": "Feature",
      "id": "build-up-area",
      "properties": {
        "name": "Build-Up Area",
        "purpose": "Build-up bays floor",
        "referenceAmbientC": 22,
        "referenceAmbientDeltaC": null
      },
      "geometry": {
        "type": "Polygon",
        "coordinates": [
          [
            [55.3592, 25.2467],
            [55.3602, 25.2467],
            [55.3602, 25.2473],
            [55.3592, 25.2473],
            [55.3592, 25.2467]
          ]
        ]
      }
    },
    {
      "type": "Feature",
      "id": "apron-staging-1",
      "properties": {
        "name": "Apron Staging 1",
        "purpose": "Apron staging near terminal",
        "referenceAmbientDeltaC": 0
      },
      "geometry": {
        "type": "Polygon",
        "coordinates": [
          [
            [55.3495, 25.2437],
            [55.3505, 25.2437],
            [55.3505, 25.2443],
            [55.3495, 25.2443],
            [55.3495, 25.2437]
          ]
        ]
      }
    },
    {
      "type": "Feature",
      "id": "apron-staging-2",
      "properties": {
        "name": "Apron Staging 2",
        "purpose": "Apron staging far west",
        "referenceAmbientDeltaC": 0
      },
      "geometry": {
        "type": "Polygon",
        "coordinates": [
          [
            [55.3515, 25.2447],
            [55.3525, 25.2447],
            [55.3525, 25.2453],
            [55.3515, 25.2453],
            [55.3515, 25.2447]
          ]
        ]
      }
    },
    {
      "type": "Feature",
      "id": "tarmac-shadow-jetbridge",
      "properties": {
        "name": "Tarmac Shadow — Gate B12 Jet Bridge",
        "purpose": "Shadow zone near gate B12 jet bridge",
        "referenceAmbientDeltaC": -4
      },
      "geometry": {
        "type": "Polygon",
        "coordinates": [
          [
            [55.362, 25.2507],
            [55.363, 25.2507],
            [55.363, 25.2513],
            [55.362, 25.2513],
            [55.362, 25.2507]
          ]
        ]
      }
    },
    {
      "type": "Feature",
      "id": "tarmac-shadow-tail",
      "properties": {
        "name": "Tarmac Shadow — Gate B14 Tail",
        "purpose": "Shadow zone near gate B14 tail",
        "referenceAmbientDeltaC": -3
      },
      "geometry": {
        "type": "Polygon",
        "coordinates": [
          [
            [55.363, 25.2512],
            [55.364, 25.2512],
            [55.364, 25.2518],
            [55.363, 25.2518],
            [55.363, 25.2512]
          ]
        ]
      }
    },
    {
      "type": "Feature",
      "id": "gate-A12",
      "properties": {
        "name": "Gate A12",
        "purpose": "Active loading position gate A12",
        "referenceAmbientDeltaC": 0
      },
      "geometry": {
        "type": "Polygon",
        "coordinates": [
          [
            [55.3645, 25.2522],
            [55.3655, 25.2522],
            [55.3655, 25.2528],
            [55.3645, 25.2528],
            [55.3645, 25.2522]
          ]
        ]
      }
    },
    {
      "type": "Feature",
      "id": "runway-25R",
      "properties": {
        "name": "Runway 25R",
        "purpose": "Departure runway centreline; in-flight transition trigger",
        "referenceAmbientDeltaC": null
      },
      "geometry": {
        "type": "LineString",
        "coordinates": [
          [55.354, 25.248],
          [55.37, 25.24]
        ]
      }
    }
  ]
}
